start=new Date('2021-09-15T00:00:00.000Z').valueOf();
sats=[{"LAUNCH_DATE":"2019-11-11","MEAN_ELEMENT_THEORY":"SGP4","OBJECT_TYPE":"PAYLOAD","PERIOD":"93.376","OBJECT_NAME":"STARLINK-1064","CLASSIFICATION_TYPE":"U","INCLINATION":"53.0574","ELEMENT_SET_NO":"999","FILE":"3115650","ARG_OF_PERICENTER":"49.1609","RCS_SIZE":"LARGE","TLE_LINE2":"2 44769  53.0574   8.4126 0001629  49.1609 310.9537 15.42159434101620","NORAD_CAT_ID":"44769","EPOCH":"2021-09-14T14:58:21.718272","PERIAPSIS":"438.629","CENTER_NAME":"EARTH","REF_FRAME":"TEME","MEAN_MOTION_DDOT":"0.0000000000000","TLE_LINE1":"1 44769U 19074BJ  21257.62386248 -.00000406  00000-0  12768-6 0  9998","APOAPSIS":"440.850","TIME_SYSTEM":"UTC","BSTAR":"0.00000012768000","EPHEMERIS_TYPE":"0","ECCENTRICITY":"0.00016290","SEMIMAJOR_AXIS":"6817.874","REV_AT_EPOCH":"10162","RA_OF_ASC_NODE":"8.4126","DECAY_DATE":null,"MEAN_MOTION":"15.42159434","MEAN_MOTION_DOT":"-0.00000406","GP_ID":"184720651","SITE":"AFETR","OBJECT_ID":"2019-074BJ","COUNTRY_CODE":"US","MEAN_ANOMALY":"310.9537"},{"REV_AT_EPOCH":"10152","DECAY_DATE":null,"RA_OF_ASC_NODE":"10.1976","MEAN_MOTION":"15.08516695","TLE_LINE1":"1 44770U 19074BK  21257.78145501  .00004990  00000-0  33425-3 0  9993","TIME_SYSTEM":"UTC","APOAPSIS":"541.277","BSTAR":"0.00033425000000","EPHEMERIS_TYPE":"0","ECCENTRICITY":"0.00007850","SEMIMAJOR_AXIS":"6918.869","SITE":"AFETR","COUNTRY_CODE":"US","OBJECT_ID":"2019-074BK","MEAN_ANOMALY":"280.5258","MEAN_MOTION_DOT":"0.00004990","GP_ID":"184720901","CLASSIFICATION_TYPE":"U","OBJECT_NAME":"STARLINK-1065","ELEMENT_SET_NO":"999","INCLINATION":"53.0040","FILE":"3115650","LAUNCH_DATE":"2019-11-11","MEAN_ELEMENT_THEORY":"SGP4","PERIOD":"95.458","OBJECT_TYPE":"PAYLOAD","EPOCH":"2021-09-14T18:45:17.712864","NORAD_CAT_ID":"44770","PERIAPSIS":"540.191","CENTER_NAME":"EARTH","MEAN_MOTION_DDOT":"0.0000000000000","REF_FRAME":"TEME","ARG_OF_PERICENTER":"79.5819","RCS_SIZE":"LARGE","TLE_LINE2":"2 44770  53.0040  10.1976 0000785  79.5819 280.5258 15.08516695101524"},{"INCLINATION":"53.0577","ELEMENT_SET_NO":"999","FILE":"3115650","OBJECT_NAME":"STARLINK-1067","CLASSIFICATION_TYPE":"U","MEAN_ELEMENT_THEORY":"SGP4","OBJECT_TYPE":"PAYLOAD","PERIOD":"95.593","LAUNCH_DATE":"2019-11-11","CENTER_NAME":"EARTH","REF_FRAME":"TEME","MEAN_MOTION_DDOT":"0.0000000000000","NORAD_CAT_ID":"44771","EPOCH":"2021-09-14T15:15:11.824992","PERIAPSIS":"546.235","RCS_SIZE":"LARGE","TLE_LINE2":"2 44771  53.0577  15.6446 0001456 107.9161 252.1986 15.06390193101450","ARG_OF_PERICENTER":"107.9161","RA_OF_ASC_NODE":"15.6446","DECAY_DATE":null,"MEAN_MOTION":"15.06390193","REV_AT_EPOCH":"10145","EPHEMERIS_TYPE":"0","ECCENTRICITY":"0.00014560","SEMIMAJOR_AXIS":"6925.379","TIME_SYSTEM":"UTC","TLE_LINE1":"1 44771U 19074BL  21257.63555353  .00000376  00000-0  44116-4 0  9992","APOAPSIS":"548.252","BSTAR":"0.00004411600000","MEAN_ANOMALY":"252.1986","COUNTRY_CODE":"US","OBJECT_ID":"2019-074BL","SITE":"AFETR","GP_ID":"184722152","MEAN_MOTION_DOT":"0.00000376"},{"INCLINATION":"53.0562","ELEMENT_SET_NO":"999","FILE":"3115492","OBJECT_NAME":"STARLINK-1068","CLASSIFICATION_TYPE":"U","MEAN_ELEMENT_THEORY":"SGP4","OBJECT_TYPE":"PAYLOAD","PERIOD":"95.592","LAUNCH_DATE":"2019-11-11","CENTER_NAME":"EARTH","REF_FRAME":"TEME","MEAN_MOTION_DDOT":"0.0000000000000","NORAD_CAT_ID":"44772","EPOCH":"2021-09-14T11:50:50.179776","PERIAPSIS":"546.435","TLE_LINE2":"2 44772  53.0562 356.2816 0001110 115.1337 244.9767 15.06403279101707","RCS_SIZE":"LARGE","ARG_OF_PERICENTER":"115.1337","RA_OF_ASC_NODE":"356.2816","DECAY_DATE":null,"MEAN_MOTION":"15.06403279","REV_AT_EPOCH":"10170","EPHEMERIS_TYPE":"0","ECCENTRICITY":"0.00011100","SEMIMAJOR_AXIS":"6925.339","APOAPSIS":"547.972","TLE_LINE1":"1 44772U 19074BM  21257.49363634 -.00000343  00000-0 -41135-5 0  9991","BSTAR":"-0.00000411350000","TIME_SYSTEM":"UTC","MEAN_ANOMALY":"244.9767","COUNTRY_CODE":"US","OBJECT_ID":"2019-074BM","SITE":"AFETR","GP_ID":"184695773","MEAN_MOTION_DOT":"-0.00000343"},{"DECAY_DATE":null,"RA_OF_ASC_NODE":"134.7236","MEAN_MOTION":"15.06395146","REV_AT_EPOCH":"9313","EPHEMERIS_TYPE":"0","ECCENTRICITY":"0.00023960","SEMIMAJOR_AXIS":"6925.363","TLE_LINE1":"1 44914U 20001A   21257.84197556 -.00000100  00000-0  12239-4 0  9990","APOAPSIS":"548.888","TIME_SYSTEM":"UTC","BSTAR":"0.00001223900000","MEAN_ANOMALY":"289.1784","COUNTRY_CODE":"US","OBJECT_ID":"2020-001A","SITE":"AFETR","GP_ID":"184721415","MEAN_MOTION_DOT":"-0.00000100","INCLINATION":"53.0553","ELEMENT_SET_NO":"999","FILE":"3115650","OBJECT_NAME":"STARLINK-1073","CLASSIFICATION_TYPE":"U","MEAN_ELEMENT_THEORY":"SGP4","OBJECT_TYPE":"PAYLOAD","PERIOD":"95.592","LAUNCH_DATE":"2020-01-07","CENTER_NAME":"EARTH","REF_FRAME":"TEME","MEAN_MOTION_DDOT":"0.0000000000000","NORAD_CAT_ID":"44914","EPOCH":"2021-09-14T20:12:26.688384","PERIAPSIS":"545.569","TLE_LINE2":"2 44914  53.0553 134.7236 0002396  70.9465 289.1784 15.06395146 93137","RCS_SIZE":"LARGE","ARG_OF_PERICENTER":"70.9465"},{"SEMIMAJOR_AXIS":"6925.337","ECCENTRICITY":"0.00021430","EPHEMERIS_TYPE":"0","TLE_LINE1":"1 44915U 20001B   21257.93780257 -.00001289  00000-0 -67596-4 0  9993","TIME_SYSTEM":"UTC","APOAPSIS":"548.687","BSTAR":"-0.00006759600000","MEAN_MOTION":"15.06403633","RA_OF_ASC_NODE":"134.2955","DECAY_DATE":null,"REV_AT_EPOCH":"9315","GP_ID":"184721667","MEAN_MOTION_DOT":"-0.00001289","MEAN_ANOMALY":"286.7907","COUNTRY_CODE":"US","OBJECT_ID":"2020-001B","SITE":"AFETR","PERIOD":"95.592","OBJECT_TYPE":"PAYLOAD","MEAN_ELEMENT_THEORY":"SGP4","LAUNCH_DATE":"2020-01-07","FILE":"3115650","ELEMENT_SET_NO":"999","INCLINATION":"53.0550","CLASSIFICATION_TYPE":"U","OBJECT_NAME":"STARLINK-1084","RCS_SIZE":"LARGE","TLE_LINE2":"2 44915  53.0550 134.2955 0002143  73.3317 286.7907 15.06403633 93154","ARG_OF_PERICENTER":"73.3317","MEAN_MOTION_DDOT":"0.0000000000000","REF_FRAME":"TEME","CENTER_NAME":"EARTH","PERIAPSIS":"545.718","EPOCH":"2021-09-14T22:30:26.142048","NORAD_CAT_ID":"44915"},{"INCLINATION":"53.0538","ELEMENT_SET_NO":"999","FILE":"3115650","OBJECT_NAME":"STARLINK-1097","CLASSIFICATION_TYPE":"U","MEAN_ELEMENT_THEORY":"SGP4","OBJECT_TYPE":"PAYLOAD","PERIOD":"91.635","LAUNCH_DATE":"2020-01-07","CENTER_NAME":"EARTH","REF_FRAME":"TEME","MEAN_MOTION_DDOT":"0.0000000000000","NORAD_CAT_ID":"44916","EPOCH":"2021-09-13T21:33:09.743616","PERIAPSIS":"353.979","RCS_SIZE":"LARGE","TLE_LINE2":"2 44916  53.0538 119.8705 0001152  77.0997 283.0149 15.71449856 93266","ARG_OF_PERICENTER":"77.0997","RA_OF_ASC_NODE":"119.8705","DECAY_DATE":null,"MEAN_MOTION":"15.71449856","REV_AT_EPOCH":"9326","EPHEMERIS_TYPE":"0","ECCENTRICITY":"0.00011520","SEMIMAJOR_AXIS":"6732.890","BSTAR":"0.00000949910000","TLE_LINE1":"1 44916U 20001C   21256.89802944  .00000634  00000-0  94991-5 0  9997","APOAPSIS":"355.530","TIME_SYSTEM":"UTC","COUNTRY_CODE":"US","MEAN_ANOMALY":"283.0149","OBJECT_ID":"2020-001C","SITE":"AFETR","GP_ID":"184721918","MEAN_MOTION_DOT":"0.00000634"},{"ELEMENT_SET_NO":"999","INCLINATION":"53.0554","FILE":"3115650","CLASSIFICATION_TYPE":"U","OBJECT_NAME":"STARLINK-1098","MEAN_ELEMENT_THEORY":"SGP4","PERIOD":"95.593","OBJECT_TYPE":"PAYLOAD","LAUNCH_DATE":"2020-01-07","CENTER_NAME":"EARTH","MEAN_MOTION_DDOT":"0.0000000000000","REF_FRAME":"TEME","EPOCH":"2021-09-14T14:38:02.508864","NORAD_CAT_ID":"44917","PERIAPSIS":"545.742","TLE_LINE2":"2 44917  53.0554 135.7691 0002161  73.1624 286.9602 15.06391773 93102","RCS_SIZE":"LARGE","ARG_OF_PERICENTER":"73.1624","DECAY_DATE":null,"RA_OF_ASC_NODE":"135.7691","MEAN_MOTION":"15.06391773","REV_AT_EPOCH":"9310","EPHEMERIS_TYPE":"0","ECCENTRICITY":"0.00021610","SEMIMAJOR_AXIS":"6925.374","TIME_SYSTEM":"UTC","TLE_LINE1":"1 44917U 20001D   21257.60975126  .00000863  00000-0  76874-4 0  9994","APOAPSIS":"548.735","BSTAR":"0.00007687400000","OBJECT_ID":"2020-001D","COUNTRY_CODE":"US","MEAN_ANOMALY":"286.9602","SITE":"AFETR","GP_ID":"184720666","MEAN_MOTION_DOT":"0.00000863"},{"RCS_SIZE":"LARGE","TLE_LINE2":"2 44918  53.0549 138.1006 0002265  75.5521 284.5719 15.06402019 93762","ARG_OF_PERICENTER":"75.5521","MEAN_MOTION_DDOT":"0.0000000000000","REF_FRAME":"TEME","CENTER_NAME":"EARTH","PERIAPSIS":"545.639","EPOCH":"2021-09-14T02:09:38.684448","NORAD_CAT_ID":"44918","PERIOD":"95.592","OBJECT_TYPE":"PAYLOAD","MEAN_ELEMENT_THEORY":"SGP4","LAUNCH_DATE":"2020-01-07","FILE":"3115492","ELEMENT_SET_NO":"999","INCLINATION":"53.0549","CLASSIFICATION_TYPE":"U","OBJECT_NAME":"STARLINK-1099","GP_ID":"184694806","MEAN_MOTION_DOT":"-0.00000392","MEAN_ANOMALY":"284.5719","COUNTRY_CODE":"US","OBJECT_ID":"2020-001E","SITE":"AFETR","SEMIMAJOR_AXIS":"6925.342","EPHEMERIS_TYPE":"0","ECCENTRICITY":"0.00022650","TLE_LINE1":"1 44918U 20001E   21257.09003107 -.00000392  00000-0 -73665-5 0  9994","TIME_SYSTEM":"UTC","APOAPSIS":"548.776","BSTAR":"-0.00000736650000","MEAN_MOTION":"15.06402019","DECAY_DATE":null,"RA_OF_ASC_NODE":"138.1006","REV_AT_EPOCH":"9376"},{"GP_ID":"184722167","MEAN_MOTION_DOT":"0.00021379","MEAN_ANOMALY":"304.0565","COUNTRY_CODE":"US","OBJECT_ID":"2020-001F","SITE":"AFETR","EPHEMERIS_TYPE":"0","ECCENTRICITY":"0.00013140","SEMIMAJOR_AXIS":"6732.816","TLE_LINE1":"1 44919U 20001F   21257.89902707  .00021379  00000-0  16809-3 0  9998","TIME_SYSTEM":"UTC","APOAPSIS":"355.565","BSTAR":"0.00016809000000","RA_OF_ASC_NODE":"118.1835","DECAY_DATE":null,"MEAN_MOTION":"15.71475750","REV_AT_EPOCH":"9337","RCS_SIZE":"LARGE","TLE_LINE2":"2 44919  53.0525 118.1835 0001314  56.0577 304.0565 15.71475750 93372","ARG_OF_PERICENTER":"56.0577","CENTER_NAME":"EARTH","MEAN_MOTION_DDOT":"0.0000000000000","REF_FRAME":"TEME","EPOCH":"2021-09-14T21:34:35.938848","NORAD_CAT_ID":"44919","PERIAPSIS":"353.796","MEAN_ELEMENT_THEORY":"SGP4","PERIOD":"91.634","OBJECT_TYPE":"PAYLOAD","LAUNCH_DATE":"2020-01-07","ELEMENT_SET_NO":"999","INCLINATION":"53.0525","FILE":"3115650","CLASSIFICATION_TYPE":"U","OBJECT_NAME":"STARLINK-1101"}];
